FENGYUN 3D              
1 43010U 17072A   26165.25789213  .00000543  00000+0  27861-3 0  9990
2 43010  99.0117 139.6270 0002599  66.7616 293.3833 14.19740790444579
NOAA 20 (JPSS-1)        
1 43013U 17073A   26165.25236493  .00000024  00000+0  32442-4 0  9997
2 43013  98.7773 104.7411 0000289  73.2421 286.8787 14.19511209444056
GOES 17                 
1 43226U 18022A   26165.17194237 -.00000174  00000+0  00000+0 0  9995
2 43226   0.9295  85.7633 0000409  32.5899 116.5253  1.00270168 30398
SENTINEL-3B             
1 43437U 18039A   26165.17411822  .00000102  00000+0  60315-4 0  9999
2 43437  98.6249 232.7495 0000753  83.4735 276.6531 14.26734006423695
FENGYUN 2H              
1 43491U 18050A   26165.06282791 -.00000123  00000+0  00000+0 0  9995
2 43491   3.0218  79.1129 0001956 135.1361 150.1623  1.00269897 29402
METOP-C                 
1 43689U 18087A   26165.25255037  .00000098  00000+0  64656-4 0  9990
2 43689  98.6645 224.9097 0001659 132.8755 227.2562 14.21511379394416
GEO-KOMPSAT-2A          
1 43823U 18100A   26165.21510009 -.00000335  00000+0  00000+0 0  9998
2 43823   0.0501 131.7912 0001780 313.1596  23.2707  1.00271962 27600
METEOR-M2 2             
1 44387U 19038A   26165.22408656  .00000500  00000+0  23606-3 0  9994
2 44387  98.9137 152.4654 0002163  52.3699 307.7675 14.24366755360870
ARKTIKA-M 1             
1 47719U 21016A   26160.51571443 -.00000149  00000+0  00000+0 0  9996
2 47719  63.2417  58.7595 7285674 269.8905  14.6803  2.00625436 38630
FENGYUN 3E              
1 49008U 21062A   26165.31255192 -.00000014  00000+0  13898-4 0  9998
2 49008  98.7488 168.7525 0002835  89.9864 270.1637 14.19904068256172
GOES 18                 
1 51850U 22021A   26165.15600350  .00000105  00000+0  00000+0 0  9990
2 51850   0.0208 162.0083 0000466   5.3663  14.2477  1.00272156  6566
NOAA 21 (JPSS-2)        
1 54234U 22150A   26165.28537350  .00000036  00000+0  37857-4 0  9993
2 54234  98.7060 104.1233 0001487 160.3391 199.7843 14.19564967186139
METEOSAT-12 (MTG-I1)    
1 54743U 22170C   26165.18961998  .00000000  00000+0  00000+0 0  9994
2 54743   0.7347  22.4374 0003143  72.1271 235.7711  1.00271990 12940
TIANMU-1 03             
1 55973U 23039A   26165.26923213  .00014780  00000+0  29226-3 0  9997
2 55973  97.5222 339.1246 0004259 106.2819 253.8899 15.47210170180385
TIANMU-1 04             
1 55974U 23039B   26165.25983317  .00015013  00000+0  29077-3 0  9992
2 55974  97.5161 338.2682 0004834 103.4907 256.6882 15.47806423180394
TIANMU-1 05             
1 55975U 23039C   26165.31453541  .00014637  00000+0  29018-3 0  9997
2 55975  97.5206 338.7874 0003892 121.5123 238.6507 15.47139222180375
TIANMU-1 06             
1 55976U 23039D   26165.26303110  .00014923  00000+0  29002-3 0  9999
2 55976  97.5213 339.3668 0004280 118.0401 242.1282 15.47711518180390
FENGYUN 3G              
1 56232U 23055A   26165.27462867  .00023034  00000+0  37452-3 0  9990
2 56232  49.9937   1.0283 0006924 284.2119  75.8079 15.52511287179553
METEOR-M2 3             
1 57166U 23091A   26165.28797939  .00000017  00000+0  26067-4 0  9996
2 57166  98.6090 220.3255 0004201 162.8273 197.3049 14.24046583154105
TIANMU-1 07             
1 57399U 23101A   26165.22206587  .00006327  00000+0  22192-3 0  9998
2 57399  97.2596 215.9583 0003959 127.5761 232.5840 15.29776946161199
TIANMU-1 08             
1 57400U 23101B   26165.18871604  .00006066  00000+0  21280-3 0  9991
2 57400  97.2585 215.6968 0005459 122.2775 237.8995 15.29781229161186
TIANMU-1 09             
1 57401U 23101C   26165.23760000  .00006381  00000+0  22352-3 0  9996
2 57401  97.2543 215.1618 0004399 133.4674 226.6934 15.29812345161196
TIANMU-1 10             
1 57402U 23101D   26165.20518584  .00006508  00000+0  22808-3 0  9999
2 57402  97.2622 216.1777 0005991 133.9636 226.2100 15.29783418161182
FENGYUN 3F              
1 57490U 23111A   26165.29653715  .00000051  00000+0  44390-4 0  9990
2 57490  98.6835 235.3590 0001588  95.1820 264.9538 14.19938640148454
ARKTIKA-M 2             
1 58584U 23198A   26160.78386103  .00000212  00000+0  00000+0 0  9997
2 58584  63.2205 155.1874 6900401 267.4353  18.7899  2.00606537 18179
TIANMU-1 11             
1 58645U 23205A   26165.30121193  .00005292  00000+0  20243-3 0  9991
2 58645  97.3443 186.9032 0009319  26.7893 333.3826 15.26969129137083
TIANMU-1 12             
1 58646U 23205B   26165.27150851  .00005758  00000+0  22036-3 0  9990
2 58646  97.3431 186.6303 0007083  14.0340 346.1094 15.26932660137069
TIANMU-1 13             
1 58647U 23205C   26165.30341024  .00005382  00000+0  20709-3 0  9997
2 58647  97.3460 186.9338 0006247 352.8646   7.2503 15.26786733137064
TIANMU-1 14             
1 58648U 23205D   26165.28870090  .00005737  00000+0  22022-3 0  9999
2 58648  97.3396 186.1034 0007208 356.7150   3.4040 15.26831688137063
TIANMU-1 19             
1 58660U 23208A   26165.28154969  .00008065  00000+0  26734-3 0  9997
2 58660  97.4504 281.5662 0004035 341.4412  18.6681 15.31535332136884
