OBJECT_NAME,OBJECT_ID,EPOCH,MEAN_MOTION,ECCENTRICITY,INCLINATION,RA_OF_ASC_NODE,ARG_OF_PERICENTER,MEAN_ANOMALY,EPHEMERIS_TYPE,CLASSIFICATION_TYPE,NORAD_CAT_ID,ELEMENT_SET_NO,REV_AT_EPOCH,BSTAR,MEAN_MOTION_DOT,MEAN_MOTION_DDOT
FENGYUN 3D,2017-072A,2026-06-14T06:11:21.880032,14.19740790,.00025999,99.0117,139.6270,66.7616,293.3833,0,U,43010,999,44457,.27861477E-3,.543E-5,0
NOAA 20 (JPSS-1),2017-073A,2026-06-14T06:03:24.329952,14.19511209,.00002894,98.7773,104.7411,73.2421,286.8787,0,U,43013,999,44405,.32442044E-4,.24E-6,0
GOES 17,2018-022A,2026-06-14T04:07:35.820768,1.00270168,.00004092,0.9295,85.7633,32.5899,116.5253,0,U,43226,999,3039,0,-.174E-5,0
SENTINEL-3B,2018-039A,2026-06-14T04:10:43.814208,14.26734006,.00007536,98.6249,232.7495,83.4735,276.6531,0,U,43437,999,42369,.6031543E-4,.102E-5,0
FENGYUN 2H,2018-050A,2026-06-14T01:30:28.331424,1.00269897,.00019565,3.0218,79.1129,135.1361,150.1623,0,U,43491,999,2940,0,-.123E-5,0
METOP-C,2018-087A,2026-06-14T06:03:40.351968,14.21511379,.00016596,98.6645,224.9097,132.8755,227.2562,0,U,43689,999,39441,.64655549E-4,.98E-6,0
GEO-KOMPSAT-2A,2018-100A,2026-06-14T05:09:44.647776,1.00271962,.00017805,0.0501,131.7912,313.1596,23.2707,0,U,43823,999,2760,0,-.335E-5,0
METEOR-M2 2,2019-038A,2026-06-14T05:22:41.078784,14.24366755,.00021638,98.9137,152.4654,52.3699,307.7675,0,U,44387,999,36087,.23606363E-3,.5E-5,0
ARKTIKA-M 1,2021-016A,2026-06-09T12:22:37.726752,2.00625436,.7285674,63.2417,58.7595,269.8905,14.6803,0,U,47719,999,3863,0,-.149E-5,0
FENGYUN 3E,2021-062A,2026-06-14T07:30:04.485888,14.19904068,.0002835,98.7488,168.7525,89.9864,270.1637,0,U,49008,999,25617,.13898283E-4,-.14E-6,0
GOES 18,2022-021A,2026-06-14T03:44:38.702400,1.00272156,.00004661,0.0208,162.0083,5.3663,14.2477,0,U,51850,999,656,0,.105E-5,0
NOAA 21 (JPSS-2),2022-150A,2026-06-14T06:50:56.270400,14.19564967,.00014878,98.7060,104.1233,160.3391,199.7843,0,U,54234,999,18613,.37856785E-4,.36E-6,0
METEOSAT-12 (MTG-I1),2022-170C,2026-06-14T04:33:03.166272,1.00271990,.00031433,0.7347,22.4374,72.1271,235.7711,0,U,54743,999,1294,0,0,0
TIANMU-1 03,2023-039A,2026-06-14T06:27:41.656032,15.47210170,.00042598,97.5222,339.1246,106.2819,253.8899,0,U,55973,999,18038,.29226165E-3,.1478E-3,0
TIANMU-1 04,2023-039B,2026-06-14T06:14:09.585888,15.47806423,.00048344,97.5161,338.2682,103.4907,256.6882,0,U,55974,999,18039,.29076506E-3,.15013E-3,0
TIANMU-1 05,2023-039C,2026-06-14T07:32:55.859424,15.47139222,.00038924,97.5206,338.7874,121.5123,238.6507,0,U,55975,999,18037,.29018085E-3,.14637E-3,0
TIANMU-1 06,2023-039D,2026-06-14T06:18:45.887040,15.47711518,.00042803,97.5213,339.3668,118.0401,242.1282,0,U,55976,999,18039,.29002301E-3,.14923E-3,0
FENGYUN 3G,2023-055A,2026-06-14T06:35:27.917088,15.52511287,.00069244,49.9937,1.0283,284.2119,75.8079,0,U,56232,999,17955,.37452037E-3,.23034E-3,0
METEOR-M2 3,2023-091A,2026-06-14T06:54:41.419296,14.24046583,.00042014,98.6090,220.3255,162.8273,197.3049,0,U,57166,999,15410,.26067127E-4,.17E-6,0
TIANMU-1 07,2023-101A,2026-06-14T05:19:46.491168,15.29776946,.00039594,97.2596,215.9583,127.5761,232.5840,0,U,57399,999,16119,.2219175E-3,.6327E-4,0
TIANMU-1 08,2023-101B,2026-06-14T04:31:45.065856,15.29781229,.00054594,97.2585,215.6968,122.2775,237.8995,0,U,57400,999,16118,.21279919E-3,.6066E-4,0
TIANMU-1 09,2023-101C,2026-06-14T05:42:08.640000,15.29812345,.00043999,97.2543,215.1618,133.4674,226.6934,0,U,57401,999,16119,.22352363E-3,.6381E-4,0
TIANMU-1 10,2023-101D,2026-06-14T04:55:28.056576,15.29783418,.00059911,97.2622,216.1777,133.9636,226.2100,0,U,57402,999,16118,.2280809E-3,.6508E-4,0
FENGYUN 3F,2023-111A,2026-06-14T07:07:00.809760,14.19938640,.00015884,98.6835,235.3590,95.1820,264.9538,0,U,57490,999,14845,.44389782E-4,.51E-6,0
ARKTIKA-M 2,2023-198A,2026-06-09T18:48:45.592992,2.00606537,.69004015,63.2205,155.1874,267.4353,18.7899,0,U,58584,999,1817,0,.212E-5,0
TIANMU-1 11,2023-205A,2026-06-14T07:13:44.710752,15.26969129,.00093198,97.3443,186.9032,26.7893,333.3826,0,U,58645,999,13708,.2024276E-3,.5292E-4,0
TIANMU-1 12,2023-205B,2026-06-14T06:30:58.335264,15.26932660,.00070836,97.3431,186.6303,14.0340,346.1094,0,U,58646,999,13706,.22036219E-3,.5758E-4,0
TIANMU-1 13,2023-205C,2026-06-14T07:16:54.644736,15.26786733,.0006247,97.3460,186.9338,352.8646,7.2503,0,U,58647,999,13706,.20708716E-3,.5382E-4,0
TIANMU-1 14,2023-205D,2026-06-14T06:55:43.757760,15.26831688,.00072082,97.3396,186.1034,356.7150,3.4040,0,U,58648,999,13706,.22022233E-3,.5737E-4,0
TIANMU-1 19,2023-208A,2026-06-14T06:45:25.893216,15.31535332,.00040356,97.4504,281.5662,341.4412,18.6681,0,U,58660,999,13688,.26734292E-3,.8065E-4,0
